{
  "type": "FeatureCollection",
  "features": [
    {
      "type": "Feature",
      "properties": {
        "norad_id": 54259,
        "name": "EUTELSAT 10B",
        "group": "eutelsat",
        "lat": 0.020126683591670715,
        "lon": -124.92871859260782,
        "alt_km": 35784.9340167538,
        "timestamp": "2025-12-09T09:46:47.318787+00:00",
        "meta_object_name": "EUTELSAT 10B",
        "meta_object_id": "2022-157A",
        "meta_epoch": "2025-12-08T21:44:38.781888",
        "meta_mean_motion": 1.00268802,
        "meta_eccentricity": 8.508e-05,
        "meta_inclination": 0.0629,
        "meta_ra_of_asc_node": 99.3292,
        "meta_arg_of_pericenter": 78.5911,
        "meta_mean_anomaly": 236.1215,
        "meta_ephemeris_type": 0,
        "meta_classification_type": "U",
        "meta_norad_cat_id": 54259,
        "meta_element_set_no": 999,
        "meta_rev_at_epoch": 1111,
        "meta_bstar": 0,
        "meta_mean_motion_dot": 7e-07,
        "meta_mean_motion_ddot": 0,
        "tle_line1": "1 54259U 22157A   25342.90600442  .00000070  00000+0  00000+0 0  9998",
        "tle_line2": "2 54259   0.0629  99.3292 0000850  78.5911 236.1215  1.00268802 11113"
      },
      "geometry": {
        "type": "Point",
        "coordinates": [
          -124.92871859260782,
          0.020126683591670715
        ]
      }
    },
    {
      "type": "Feature",
      "properties": {
        "norad_id": 59346,
        "name": "EUTELSAT 36D",
        "group": "eutelsat",
        "lat": -0.018395098739354597,
        "lon": -99.04857752671131,
        "alt_km": 35785.66129871164,
        "timestamp": "2025-12-09T09:46:47.318799+00:00",
        "meta_object_name": "EUTELSAT 36D",
        "meta_object_id": "2024-059A",
        "meta_epoch": "2025-12-08T22:20:06.315360",
        "meta_mean_motion": 1.00269127,
        "meta_eccentricity": 3.953e-05,
        "meta_inclination": 0.001,
        "meta_ra_of_asc_node": 17.2851,
        "meta_arg_of_pericenter": 292.2542,
        "meta_mean_anomaly": 139.2824,
        "meta_ephemeris_type": 0,
        "meta_classification_type": "U",
        "meta_norad_cat_id": 59346,
        "meta_element_set_no": 999,
        "meta_rev_at_epoch": 624,
        "meta_bstar": 0,
        "meta_mean_motion_dot": 1.58e-06,
        "meta_mean_motion_ddot": 0,
        "tle_line1": "1 59346U 24059A   25342.93062865  .00000158  00000+0  00000+0 0  9994",
        "tle_line2": "2 59346   0.0010  17.2851 0000395 292.2542 139.2824  1.00269127  6246"
      },
      "geometry": {
        "type": "Point",
        "coordinates": [
          -99.04857752671131,
          -0.018395098739354597
        ]
      }
    }
  ]
}